{"type": "FeatureCollection", "features": [{"type": "Feature", "geometry": {"type": "Polygon", "coordinates": [[[163.22091674775822, 62.320430820438226], [163.22093266206247, 62.32016166542067], [163.22035409056366, 62.32015426086256], [163.22038592853806, 62.31961595095732], [163.21980736770055, 62.3196085441612], [163.21983921471622, 62.319070234373065], [163.2209963160413, 62.31908504522228], [163.22098040303229, 62.31935420029109], [163.2221375159894, 62.319369001683434], [163.2221216129937, 62.319638156907715], [163.22270017512628, 62.31964555407851], [163.22266837850145, 62.320183864656784], [163.2215112338851, 62.32016906757244], [163.2214953247497, 62.32043822267411], [163.22091674775822, 62.320430820438226]]]}, "properties": {"zone_id": "scene_03_russia_sample-Z0001", "scene": "scene_03_russia_sample", "pixel_count": 15, "approx_area_m2": 13500.0, "centroid_x": 407818.0, "centroid_y": 6911066.0, "centroid_lon": 163.2212093654881, "centroid_lat": 62.31972525336609, "mean_risk": 2.069545030593872, "max_risk": 2.442004680633545, "median_risk": 2.0476291179656982, "high_priority_pixel_pct": 100.0, "priority_category": "HIGH PRIORITY", "threshold_type": "95th percentile prioritisation threshold", "recommendation": "Spectral-stress evidence detected. Prioritise field inspection to determine the underlying cause. Field verification required.", "priority_rank": 14}}, {"type": "Feature", "geometry": {"type": "Polygon", "coordinates": [[[163.23306693242492, 62.32058576204191], [163.23308273818134, 62.320316605263045], [163.23192558194853, 62.32030189480952], [163.2319413977212, 62.32003273818508], [163.23078425311354, 62.32001801827315], [163.23080007890195, 62.31974886180326], [163.23137864587602, 62.31975622287875], [163.23139446617373, 62.31948706631238], [163.23197302830098, 62.319494424897854], [163.2319888431082, 62.31922526823506], [163.2325674003887, 62.31923262433055], [163.23258320970555, 62.31896346757132], [163.23374031489448, 62.31897817237618], [163.23372451591464, 62.31924732930258], [163.2343030741599, 62.319254678179085], [163.23422410028238, 62.320600463036804], [163.23306693242492, 62.32058576204191]]]}, "properties": {"zone_id": "scene_03_russia_sample-Z0002", "scene": "scene_03_russia_sample", "pixel_count": 34, "approx_area_m2": 30600.0, "centroid_x": 408369.70588235295, "centroid_y": 6911070.882352941, "centroid_lon": 163.23184673970903, "centroid_lat": 62.319904777818124, "mean_risk": 2.1953084468841553, "max_risk": 3.0233893394470215, "median_risk": 2.120999336242676, "high_priority_pixel_pct": 100.0, "priority_category": "HIGH PRIORITY", "threshold_type": "95th percentile prioritisation threshold", "recommendation": "Spectral-stress evidence detected. Prioritise field inspection to determine the underlying cause. Field verification required.", "priority_rank": 7}}, {"type": "Feature", "geometry": {"type": "Polygon", "coordinates": [[[163.23885278456095, 62.320659170757416], [163.23888429237144, 62.32012085551797], [163.2383057160516, 62.32011352564223], [163.23836874850085, 62.319036895343274], [163.24010441639666, 62.31905887675167], [163.24012015820185, 62.318789718895125], [163.24185581347496, 62.318811678396926], [163.2418400871754, 62.3190808365031], [163.2424186447418, 62.31908815160755], [163.2423872015201, 62.3196264679479], [163.24123006603247, 62.319611834999954], [163.241214333604, 62.31988099298464], [163.2406357611715, 62.31987367281787], [163.24062002325394, 62.320142830706565], [163.2411986008554, 62.32015015095654], [163.24118286778665, 62.3204193089157], [163.2423400342881, 62.32043394236266], [163.24235575701871, 62.32016478423717], [163.24293433558032, 62.32017209726781], [163.24291861801882, 62.32044125547643], [163.24349720206936, 62.320448566183735], [163.2434814893572, 62.320717724462675], [163.23885278456095, 62.320659170757416]]]}, "properties": {"zone_id": "scene_03_russia_sample-Z0003", "scene": "scene_03_russia_sample", "pixel_count": 39, "approx_area_m2": 35100.0, "centroid_x": 408814.6153846154, "centroid_y": 6911046.153846154, "centroid_lon": 163.24044012730775, "centroid_lat": 62.31979177128965, "mean_risk": 2.1560416221618652, "max_risk": 2.4995481967926025, "median_risk": 2.1507997512817383, "high_priority_pixel_pct": 100.0, "priority_category": "HIGH PRIORITY", "threshold_type": "95th percentile prioritisation threshold", "recommendation": "Spectral-stress evidence detected. Prioritise field inspection to determine the underlying cause. Field verification required.", "priority_rank": 10}}, {"type": "Feature", "geometry": {"type": "Polygon", "coordinates": [[[163.28919103949625, 62.321287672123034], [163.28920634381214, 62.321018507364954], [163.28978495310997, 62.321025625545616], [163.2898155504679, 62.32048729582964], [163.29039414973752, 62.32049441144183], [163.290424735511, 62.3199560815135], [163.28926755796138, 62.3199418482061], [163.28928286072014, 62.31967268338476], [163.2887042775818, 62.31966556320214], [163.2887348925036, 62.31912723368343], [163.2893134653035, 62.31913435370417], [163.28937467073374, 62.31805769419117], [163.2899532231692, 62.31806481148179], [163.28998381367896, 62.31752648148759], [163.28882672979384, 62.31751224482364], [163.28881142435742, 62.31778140966522], [163.2882328777134, 62.31777428764282], [163.28826349861177, 62.31723595810892], [163.28768496261628, 62.317228833842115], [163.2877155926051, 62.316690504419554], [163.2865585422222, 62.31667624899118], [163.2865738670854, 62.31640708442296], [163.2859953475297, 62.316399953180486], [163.28601067724912, 62.31613078868066], [163.2854321631733, 62.31612365511306], [163.2854474977487, 62.3158544906817], [163.28486898915278, 62.31584735478905], [163.28494568318752, 62.31450153284776], [163.28552416594562, 62.314508668334895], [163.2855394986491, 62.314239503827544], [163.28611797655194, 62.314246636827576], [163.2861333037763, 62.313977472226526], [163.28439788650513, 62.31395606625179], [163.28441322891877, 62.313686901881354], [163.2832562959659, 62.31367261936414], [163.2832716484012, 62.31340345514341], [163.28269318756017, 62.31339631035712], [163.2827085448499, 62.3131271462049], [163.28097317970216, 62.31310569765455], [163.28100392434393, 62.31256736979967], [163.28042548025326, 62.31256021563381], [163.28047161036937, 62.311752724000435], [163.2810500389611, 62.31175987792238], [163.2810961507639, 62.310952385931024], [163.28167456417026, 62.310959537203416], [163.28170529347716, 62.3104212089833], [163.2828621005644, 62.31043550398621], [163.2829081611875, 62.30962801107362], [163.2823297729842, 62.30962086501859], [163.28236048883517, 62.30908253650931], [163.28293886670795, 62.309089682401904], [163.28295421899975, 62.308820518047035], [163.2841109653519, 62.308834802453525], [163.28409562339039, 62.309103966970724], [163.28467400219975, 62.30911110564695], [163.28465866509134, 62.309380270232616], [163.2858154339765, 62.30939454053089], [163.28583076075444, 62.30912537578304], [163.2869875205562, 62.30913963629726], [163.28700283669207, 62.308870471374696], [163.28815958740978, 62.3088847221051], [163.28814428160425, 62.30915388718964], [163.28930104389778, 62.309168128460094], [163.28925515560547, 62.30997562412333], [163.2904119501361, 62.30998985625715], [163.2903966637476, 62.31025902161468], [163.29155346985337, 62.31027324428786], [163.29153819348537, 62.31054240979438], [163.29443024001532, 62.31057792478298], [163.29447599070184, 62.30977042701456], [163.2950543854419, 62.309777522553446], [163.29506962988478, 62.30950835652474], [163.2944912403102, 62.30950126106649], [163.29452173859633, 62.30896292913242], [163.2951001178402, 62.3089700244294], [163.29508487401753, 62.30923919048337], [163.2956632587368, 62.30924628345549], [163.29564801976943, 62.309515449577454], [163.29680480046866, 62.30952962846628], [163.29678957152234, 62.30979879473676], [163.29736796750223, 62.3098058806534], [163.2973375190115, 62.310344213317556], [163.2979159256325, 62.310351296989644], [163.29787026607139, 62.311158796132645], [163.2984486884999, 62.31116587764055], [163.29841825757677, 62.311704210500395], [163.29899669064727, 62.31171128976352], [163.2989510574404, 62.31251878919996], [163.29837260887038, 62.31251170969546], [163.29834217485157, 62.31305004242903], [163.29892063375513, 62.31305712209449], [163.29889020883192, 62.31359545493849], [163.29831173959442, 62.31358837511209], [163.29829652150138, 62.31385754143468], [163.29771804740636, 62.31385045912183], [163.2977028238365, 62.3141196253513], [163.29828130309875, 62.31412670774464], [163.29826608438648, 62.31439587404199], [163.29884456912572, 62.31440295410978], [163.29875328135554, 62.316017952111544], [163.29817476561007, 62.31601087156086], [163.2982204263918, 62.315203372858235], [163.29706342683713, 62.315189205021404], [163.29704819655075, 62.31545837110722], [163.29646969207047, 62.315451283499065], [163.29645445630635, 62.315720449491664], [163.2952974379402, 62.31570626689576], [163.29522120278799, 62.31705209586319], [163.29579973765672, 62.31705918876734], [163.29578449486397, 62.31732835460355], [163.2963630352113, 62.317335445181996], [163.29634779727698, 62.317604611086175], [163.2975048892388, 62.31761878518519], [163.2974896613318, 62.31788795123786], [163.29806821294628, 62.31789503475835], [163.2980529898982, 62.31816420087893], [163.2986315469912, 62.31817128207351], [163.29844890828372, 62.32140127550144], [163.28919103949625, 62.321287672123034]], [[163.29401835815588, 62.31784539958084], [163.29459690790955, 62.317852497539626], [163.29462741509994, 62.317314166227675], [163.29404887568342, 62.317307068430246], [163.29407939196906, 62.316768737229125], [163.29350086319977, 62.316761637186815], [163.29351612604512, 62.31649247164797], [163.2929376027546, 62.31648536928013], [163.29292233474104, 62.3167545347382], [163.29234380659295, 62.316747429883364], [163.29231325929715, 62.31728576060009], [163.29289179778192, 62.317292865616466], [163.29287652883633, 62.31756203103662], [163.2940336170749, 62.31757623401185], [163.29401835815588, 62.31784539958084]], [[163.28846250408068, 62.313736814904956], [163.28904097320745, 62.31374393571318], [163.28905627397333, 62.31347477068186], [163.2896347382444, 62.313481889003214], [163.28965003353213, 62.313212723878316], [163.28849311563505, 62.31319848499154], [163.28846250408068, 62.313736814904956]], [[163.29424720934426, 62.31380791471934], [163.2948256815793, 62.31381501146802], [163.29484093067495, 62.31354584562886], [163.29426246360694, 62.31353874896083], [163.29424720934426, 62.31380791471934]], [[163.2874127740857, 62.31183841228589], [163.28914807203188, 62.3118597802282], [163.28917866889466, 62.311321449975765], [163.28802182395057, 62.3113072074104], [163.2880065153425, 62.31157637238106], [163.28742808817145, 62.31156924740886], [163.2874127740857, 62.31183841228589]], [[163.29149236251675, 62.311349906238135], [163.2920707866995, 62.31135701428947], [163.29210133065735, 62.31081868317804], [163.29152291680663, 62.31081157528829], [163.29149236251675, 62.311349906238135]]]}, "properties": {"zone_id": "scene_03_russia_sample-Z0004", "scene": "scene_03_russia_sample", "pixel_count": 906, "approx_area_m2": 815400.0, "centroid_x": 411428.0132450331, "centroid_y": 6910395.1986754965, "centroid_lon": 163.2911741847969, "centroid_lat": 62.31458001744839, "mean_risk": 1.94008207321167, "max_risk": 2.2206318378448486, "median_risk": 1.934370994567871, "high_priority_pixel_pct": 100.0, "priority_category": "HIGH PRIORITY", "threshold_type": "95th percentile prioritisation threshold", "recommendation": "Spectral-stress evidence detected. Prioritise field inspection to determine the underlying cause. Field verification required.", "priority_rank": 23}}, {"type": "Feature", "geometry": {"type": "Polygon", "coordinates": [[[163.23436624747694, 62.31817805006269], [163.23439783220735, 62.31763973592779], [163.23381930497172, 62.31763238755248], [163.23385089875254, 62.31709407353346], [163.23442941565247, 62.31710142174173], [163.23444520689307, 62.31683226462951], [163.2338666951608, 62.31682491650477], [163.23391408245726, 62.31601744534197], [163.23160010075284, 62.31598802978529], [163.23164754716265, 62.31518055951041], [163.23106906804213, 62.315173199857206], [163.23108488803544, 62.314904043156965], [163.2299279410939, 62.314889316800254], [163.22994377109893, 62.31462016025459], [163.229365303278, 62.31461279355115], [163.22938113812765, 62.314343637076426], [163.22995960078188, 62.31435100369613], [163.22999125918165, 62.313812690540836], [163.23114816479006, 62.31382741622808], [163.23117980123638, 62.31328910268684], [163.23175824419073, 62.313296461754526], [163.23178986901758, 62.31275814799483], [163.23294673522673, 62.312772858578626], [163.23293093330633, 62.31304201563206], [163.23408781113358, 62.31305671676024], [163.2340720192241, 62.31332587396799], [163.2346504637859, 62.313333221007056], [163.23463467672147, 62.31360237828549], [163.2357915771412, 62.31361706531333], [163.23576002271477, 62.31415538016576], [163.23518156201138, 62.31414803768781], [163.23516577914998, 62.31441719501137], [163.23458731360103, 62.314409850044136], [163.2345715252518, 62.31467900727146], [163.2339930548573, 62.31467165981485], [163.23397726102, 62.31494081694585], [163.23339878577997, 62.31493346699985], [163.23336718680733, 62.31547178105642], [163.23394567238134, 62.31547913116949], [163.23396146686133, 62.31520997406408], [163.23453994758964, 62.3152173216877], [163.2345241582767, 62.31548647887662], [163.2351026444933, 62.3154938241778], [163.2351184286392, 62.315224666905394], [163.23916780497203, 62.31527601606319], [163.2391363086994, 62.315814331762596], [163.2397148026495, 62.31582165789934], [163.23969905919992, 62.31609081581314], [163.2402775586377, 62.316098139627144], [163.2402303418697, 62.316905613541664], [163.2384947980093, 62.31688363413209], [163.23851055275526, 62.31661447642318], [163.23561801190544, 62.31657779636876], [163.23560223132134, 62.316846953660736], [163.2373377703717, 62.31686896916184], [163.2373220049697, 62.31713812669126], [163.23790052379596, 62.3171454604628], [163.2378532411691, 62.3179529332245], [163.2349605727278, 62.3179162390543], [163.23494478537006, 62.318185396198835], [163.23436624747694, 62.31817805006269]], [[163.23449257868705, 62.316024793216144], [163.23507107523815, 62.31603213868431], [163.2350868600263, 62.31576298143746], [163.23450836864254, 62.31575563605279], [163.23449257868705, 62.316024793216144]], [[163.2350868600263, 62.31576298143746], [163.23566535173126, 62.31577032441615], [163.2356811310311, 62.31550116707304], [163.2351026444933, 62.3154938241778], [163.2350868600263, 62.31576298143746]]]}, "properties": {"zone_id": "scene_03_russia_sample-Z0005", "scene": "scene_03_russia_sample", "pixel_count": 149, "approx_area_m2": 134100.0, "centroid_x": 408505.9731543624, "centroid_y": 6910574.697986578, "centroid_lon": 163.23473591112653, "centroid_lat": 62.31548645622346, "mean_risk": 2.159597396850586, "max_risk": 2.902229070663452, "median_risk": 2.108790874481201, "high_priority_pixel_pct": 100.0, "priority_category": "HIGH PRIORITY", "threshold_type": "95th percentile prioritisation threshold", "recommendation": "Spectral-stress evidence detected. Prioritise field inspection to determine the underlying cause. Field verification required.", "priority_rank": 9}}, {"type": "Feature", "geometry": {"type": "Polygon", "coordinates": [[[163.23180568094847, 62.31248899109578], [163.23183730384525, 62.311950677259304], [163.23068046991798, 62.311935957554745], [163.23069629121517, 62.311666800784614], [163.2289610582354, 62.311644703437096], [163.22894522144134, 62.311913859956086], [163.2277883907343, 62.3118991161958], [163.22780423785954, 62.31162995984437], [163.22722582815516, 62.31162258443969], [163.22724168012354, 62.3113534281593], [163.22782008466245, 62.31136080348015], [163.22783593114298, 62.311091647103105], [163.22841433083886, 62.31109901993464], [163.22846185285073, 62.31029155047531], [163.22961862221806, 62.31030628841943], [163.22960279219984, 62.3105754450862], [163.23249474707728, 62.3106122482701], [163.23244733257036, 62.311419719448345], [163.23360414776477, 62.311434424385155], [163.233619942591, 62.3111652671714], [163.23419834550475, 62.31117261594797], [163.23421413484428, 62.31090345863791], [163.2359493300162, 62.310925490284156], [163.23593355617285, 62.311194647844616], [163.23651196037082, 62.31120198699914], [163.23649619137208, 62.3114711446302], [163.23707460105635, 62.31147848146258], [163.23705883690243, 62.311747639164246], [163.23648042205252, 62.311740302248495], [163.2364646524122, 62.312009459853996], [163.23588623271735, 62.31200212044924], [163.23587045759035, 62.31227127795857], [163.23471360883192, 62.31225659176535], [163.23469782305216, 62.31252574909495], [163.23180568094847, 62.31248899109578]]]}, "properties": {"zone_id": "scene_03_russia_sample-Z0006", "scene": "scene_03_russia_sample", "pixel_count": 73, "approx_area_m2": 65700.0, "centroid_x": 408360.8219178082, "centroid_y": 6910131.369863014, "centroid_lon": 163.2321706192938, "centroid_lat": 62.31147339301997, "mean_risk": 2.25472092628479, "max_risk": 2.8834011554718018, "median_risk": 2.2189180850982666, "high_priority_pixel_pct": 100.0, "priority_category": "HIGH PRIORITY", "threshold_type": "95th percentile prioritisation threshold", "recommendation": "Spectral-stress evidence detected. Prioritise field inspection to determine the underlying cause. Field verification required.", "priority_rank": 3}}, {"type": "Feature", "geometry": {"type": "Polygon", "coordinates": [[[163.22499155248556, 62.31024727891331], [163.22502329419436, 62.309708966882674], [163.22560166645226, 62.30971635132199], [163.22561753165766, 62.30944719520353], [163.22619589907362, 62.3094545771536], [163.22621175879166, 62.309185420938434], [163.2267901213656, 62.30919280039932], [163.22680597559656, 62.30892364408749], [163.22738433332847, 62.308931021059266], [163.22740018207247, 62.30866186465079], [163.22855688817452, 62.308676611210956], [163.2285727262675, 62.308407454622106], [163.2297294233295, 62.30842219139383], [163.22971359556524, 62.30869134815018], [163.23029194974362, 62.30869871301192], [163.23027612682185, 62.308967869839165], [163.22969776747902, 62.30896050489373], [163.2296819390708, 62.309229661624464], [163.2291035748854, 62.30922229419003], [163.2290877409905, 62.30949145082427], [163.22850937196253, 62.309484080900766], [163.22849353258079, 62.309753237438414], [163.22791515871026, 62.30974586502581], [163.22789931384148, 62.3100150214669], [163.22674255673772, 62.310000269258005], [163.2267267012167, 62.310269425518584], [163.22499155248556, 62.31024727891331]]]}, "properties": {"zone_id": "scene_03_russia_sample-Z0007", "scene": "scene_03_russia_sample", "pixel_count": 30, "approx_area_m2": 27000.0, "centroid_x": 408116.0, "centroid_y": 6909903.0, "centroid_lon": 163.2275710422798, "centroid_lat": 62.30936437562239, "mean_risk": 1.9962395429611206, "max_risk": 2.2689056396484375, "median_risk": 1.9803345203399658, "high_priority_pixel_pct": 100.0, "priority_category": "HIGH PRIORITY", "threshold_type": "95th percentile prioritisation threshold", "recommendation": "Spectral-stress evidence detected. Prioritise field inspection to determine the underlying cause. Field verification required.", "priority_rank": 20}}, {"type": "Feature", "geometry": {"type": "Polygon", "coordinates": [[[163.23599664962106, 62.310118017526115], [163.23602819442, 62.309579702290144], [163.23544982153376, 62.309572361230714], [163.23548137537878, 62.30903404611045], [163.23605973793556, 62.30904138700304], [163.23607550921213, 62.308772229340306], [163.23549715181989, 62.30876488853117], [163.23552870373936, 62.30822657333419], [163.2372637458919, 62.30824858804545], [163.2372479855857, 62.30851774590051], [163.23782633877556, 62.30852507941051], [163.23781058331323, 62.30879423733613], [163.2372322249589, 62.308786903742785], [163.23721646401148, 62.30905606157229], [163.23663810081317, 62.30904872549032], [163.236575033158, 62.31012535634701], [163.23599664962106, 62.310118017526115]]]}, "properties": {"zone_id": "scene_03_russia_sample-Z0008", "scene": "scene_03_russia_sample", "pixel_count": 15, "approx_area_m2": 13500.0, "centroid_x": 408572.0, "centroid_y": 6909846.0, "centroid_lon": 163.23639220739884, "centroid_lat": 62.308964798462824, "mean_risk": 1.981616497039795, "max_risk": 2.3576579093933105, "median_risk": 1.9841777086257935, "high_priority_pixel_pct": 100.0, "priority_category": "HIGH PRIORITY", "threshold_type": "95th percentile prioritisation threshold", "recommendation": "Spectral-stress evidence detected. Prioritise field inspection to determine the underlying cause. Field verification required.", "priority_rank": 21}}, {"type": "Feature", "geometry": {"type": "Polygon", "coordinates": [[[163.2187408533545, 62.30828180362252], [163.21875677891595, 62.30801264844877], [163.21817844152505, 62.3080052356511], [163.21819437192656, 62.30773608054874], [163.21761604002364, 62.3077286654302], [163.217631975265, 62.307459510399305], [163.21705364885005, 62.30745209295995], [163.2171014681202, 62.30664462804307], [163.21652315752038, 62.30663720845157], [163.2165391017921, 62.30636805353794], [163.2148041874291, 62.30634578058663], [163.21483610597906, 62.30580747122704], [163.2154144001158, 62.305814897780316], [163.2154303537408, 62.305545742996856], [163.21600864303895, 62.305553167060864], [163.2160405389897, 62.30501485728672], [163.21546226001738, 62.305007433391424], [163.21549416499613, 62.30446912373465], [163.21491589667372, 62.30446169760332], [163.21493185383898, 62.304192542840056], [163.21435359100363, 62.30418511438836], [163.21433762867585, 62.30445426906722], [163.21260282663062, 62.30443196903031], [163.2126507591018, 62.30362450571542], [163.21322901063814, 62.30363194121232], [163.21326095366993, 62.30309363210253], [163.21268271245782, 62.303086196774565], [163.21266673594226, 62.303355351251426], [163.21093199876975, 62.30333303058623], [163.21096398244808, 62.30279472212693], [163.21154221752315, 62.30280216458418], [163.21160616033035, 62.301725547173156], [163.21044973179903, 62.30171066053071], [163.21048172189765, 62.30117235208637], [163.21105992567794, 62.30117979644066], [163.2110919041531, 62.30064148777578], [163.21167009793623, 62.30064892955653], [163.21165411402237, 62.30091808397997], [163.21223231329168, 62.30092552344088], [163.2121843750837, 62.301732986887664], [163.21334080556522, 62.301747859103216], [163.21332483583572, 62.30201701372878], [163.21448127793948, 62.302031876495256], [163.2144972373458, 62.30176272170083], [163.21565367042462, 62.30177757468048], [163.21562177193402, 62.30231588459402], [163.21504354490907, 62.302308459137706], [163.2150275900154, 62.302577613990856], [163.21560582220218, 62.30258503953153], [163.21558987214596, 62.3028541944562], [163.21616810981902, 62.30286161767666], [163.21607243364298, 62.30447654746123], [163.21780724152916, 62.30449880421229], [163.21779130985274, 62.30476795938437], [163.218369584959, 62.30477537357608], [163.21835365812137, 62.30504452881954], [163.21951021963125, 62.30505935015693], [163.2194943027955, 62.30532850555604], [163.2212291629769, 62.30535071977822], [163.22121326130656, 62.305619875416895], [163.2206349690928, 62.30561247299692], [163.22060315445538, 62.30615078406761], [163.22233806304624, 62.306172984617334], [163.22227449185112, 62.30724960761391], [163.22169616800994, 62.307242209499364], [163.22166437014502, 62.307780520752566], [163.22108603629948, 62.30777312006473], [163.2210701317179, 62.308042275588015], [163.2199134546695, 62.308027466828676], [163.2198975394362, 62.30829662217083], [163.2187408533545, 62.30828180362252]]]}, "properties": {"zone_id": "scene_03_russia_sample-Z0009", "scene": "scene_03_russia_sample", "pixel_count": 179, "approx_area_m2": 161100.0, "centroid_x": 407534.0782122905, "centroid_y": 6909424.525139665, "centroid_lon": 163.21660661647007, "centroid_lat": 62.30492807208288, "mean_risk": 2.274900197982788, "max_risk": 3.2009236812591553, "median_risk": 2.238579273223877, "high_priority_pixel_pct": 100.0, "priority_category": "HIGH PRIORITY", "threshold_type": "95th percentile prioritisation threshold", "recommendation": "Spectral-stress evidence detected. Prioritise field inspection to determine the underlying cause. Field verification required.", "priority_rank": 2}}, {"type": "Feature", "geometry": {"type": "Polygon", "coordinates": [[[163.23557602921193, 62.30741910044285], [163.2355918037277, 62.30714994278683], [163.23443515187628, 62.307135254954254], [163.2344667206003, 62.30659693993766], [163.235045036038, 62.30660428488956], [163.23507659315072, 62.306065969654895], [163.23796812351563, 62.30610265750478], [163.23793661803867, 62.306640973573295], [163.23735830099727, 62.30663364064666], [163.2373425426144, 62.30690279857842], [163.23792086481956, 62.306910131588374], [163.23790511128, 62.30717928959069], [163.23732678391102, 62.3071719564974], [163.23731102488708, 62.30744111440359], [163.23557602921193, 62.30741910044285]]]}, "properties": {"zone_id": "scene_03_russia_sample-Z0010", "scene": "scene_03_russia_sample", "pixel_count": 24, "approx_area_m2": 21600.0, "centroid_x": 408560.0, "centroid_y": 6909596.25, "centroid_lon": 163.23629214101453, "centroid_lat": 62.306721124869966, "mean_risk": 2.2307937145233154, "max_risk": 2.6356585025787354, "median_risk": 2.2596359252929688, "high_priority_pixel_pct": 100.0, "priority_category": "HIGH PRIORITY", "threshold_type": "95th percentile prioritisation threshold", "recommendation": "Spectral-stress evidence detected. Prioritise field inspection to determine the underlying cause. Field verification required.", "priority_rank": 4}}, {"type": "Feature", "geometry": {"type": "Polygon", "coordinates": [[[163.23277917336333, 62.30576741878255], [163.23282656762075, 62.3049599467983], [163.23224828444768, 62.304952592727645], [163.23231149294375, 62.30387596357043], [163.23173323074315, 62.30386860742929], [163.2317490372262, 62.303599450191584], [163.23117078050956, 62.30359209172927], [163.23120240283595, 62.30305377738271], [163.2317806492279, 62.303061135677765], [163.2318122599438, 62.3025228211128], [163.2323904963329, 62.30253017683602], [163.2323588959413, 62.30306849156817], [163.23351539033203, 62.30308319613491], [163.23348380930446, 62.303621511150055], [163.23464032562927, 62.303636206431996], [163.23462454495882, 62.303905364087385], [163.23520280876528, 62.30391270820468], [163.23517125678694, 62.30445102364397], [163.23459298265507, 62.304443679359764], [163.2345614190674, 62.304981994580984], [163.23398313493072, 62.304974647724954], [163.23393577165226, 62.305782120210395], [163.23277917336333, 62.30576741878255]]]}, "properties": {"zone_id": "scene_03_russia_sample-Z0011", "scene": "scene_03_russia_sample", "pixel_count": 39, "approx_area_m2": 35100.0, "centroid_x": 408390.76923076925, "centroid_y": 6909316.153846154, "centroid_lon": 163.23317731287509, "centroid_lat": 62.304166691412924, "mean_risk": 2.2010064125061035, "max_risk": 2.754166841506958, "median_risk": 2.158839225769043, "high_priority_pixel_pct": 100.0, "priority_category": "HIGH PRIORITY", "threshold_type": "95th percentile prioritisation threshold", "recommendation": "Spectral-stress evidence detected. Prioritise field inspection to determine the underlying cause. Field verification required.", "priority_rank": 6}}, {"type": "Feature", "geometry": {"type": "Polygon", "coordinates": [[[163.2509411324977, 62.301956810147395], [163.25098803225876, 62.301149329858106], [163.25040981661118, 62.30114205158045], [163.2504254543907, 62.300872891541225], [163.25158187568047, 62.30088744552659], [163.25156624822432, 62.301156605731215], [163.25214446450764, 62.30116387919978], [163.2521288418954, 62.30143303947428], [163.25270706365822, 62.3014403106209], [163.2526758278045, 62.30197863129689], [163.2509411324977, 62.301956810147395]]]}, "properties": {"zone_id": "scene_03_russia_sample-Z0012", "scene": "scene_03_russia_sample", "pixel_count": 10, "approx_area_m2": 9000.0, "centroid_x": 409338.0, "centroid_y": 6908991.0, "centroid_lon": 163.2516053170908, "centroid_lat": 62.30148032542488, "mean_risk": 1.9625418186187744, "max_risk": 2.046900987625122, "median_risk": 1.9771068096160889, "high_priority_pixel_pct": 100.0, "priority_category": "HIGH PRIORITY", "threshold_type": "95th percentile prioritisation threshold", "recommendation": "Spectral-stress evidence detected. Prioritise field inspection to determine the underlying cause. Field verification required.", "priority_rank": 22}}, {"type": "Feature", "geometry": {"type": "Polygon", "coordinates": [[[163.24755007000235, 62.300567304860664], [163.24756573295286, 62.300298145209815], [163.24698753469946, 62.300290852753534], [163.24700320249275, 62.30002169317282], [163.24758139558486, 62.30002898554624], [163.24761271989334, 62.299490666180766], [163.24703453712345, 62.299483373973054], [163.24709720256178, 62.298406735420436], [163.24767536468843, 62.29841402729676], [163.24770668517522, 62.297875707778196], [163.25001929558124, 62.29790485057864], [163.25000365613892, 62.2981740106754], [163.25058181469623, 62.298181290447694], [163.2505505451788, 62.298719610768394], [163.24939420773967, 62.29870504848868], [163.24937856218247, 62.298974208464436], [163.25053490994318, 62.298988770909624], [163.25048800232858, 62.29979625125681], [163.24990981280615, 62.299788970988224], [163.24989417113744, 62.30005813099573], [163.2493159767719, 62.300050848240005], [163.2493003296238, 62.300320008152], [163.24872213041513, 62.300312722909055], [163.2487064777874, 62.30058188272554], [163.24755007000235, 62.300567304860664]]]}, "properties": {"zone_id": "scene_03_russia_sample-Z0013", "scene": "scene_03_russia_sample", "pixel_count": 46, "approx_area_m2": 41400.0, "centroid_x": 409181.73913043475, "centroid_y": 6908734.565217392, "centroid_lon": 163.24872733633603, "centroid_lat": 62.29914167070917, "mean_risk": 2.129570722579956, "max_risk": 2.57161283493042, "median_risk": 2.139340877532959, "high_priority_pixel_pct": 100.0, "priority_category": "HIGH PRIORITY", "threshold_type": "95th percentile prioritisation threshold", "recommendation": "Spectral-stress evidence detected. Prioritise field inspection to determine the underlying cause. Field verification required.", "priority_rank": 12}}, {"type": "Feature", "geometry": {"type": "Polygon", "coordinates": [[[163.25345700345287, 62.29848681382533], [163.2534726122495, 62.29821765324545], [163.25289445210362, 62.298210385494414], [163.25291006574338, 62.29794122498436], [163.2511756026928, 62.297919407553586], [163.251206859982, 62.29738108699104], [163.25178500369384, 62.29738836170687], [163.25183187176398, 62.2965808805195], [163.2506756156186, 62.2965663291796], [163.25065998292627, 62.296835489422826], [163.25008185017035, 62.296828210064064], [163.25006621200006, 62.29709737021186], [163.24948807440208, 62.297090088366254], [163.2495037177324, 62.29682092830121], [163.24892558561257, 62.29681364413424], [163.24890993712216, 62.29708280411654], [163.24717552719213, 62.297060936942614], [163.24715986290315, 62.29733009666369], [163.24658172173656, 62.29732280271461], [163.24659739118567, 62.297053643076396], [163.24601925549786, 62.297046346806084], [163.24603492978832, 62.29677718723801], [163.2471911911626, 62.29679177720877], [163.2472068548146, 62.29652261746218], [163.24778498081963, 62.296529908758586], [163.24781629684858, 62.29599158906145], [163.24839441285246, 62.295998877788165], [163.24841006522976, 62.29572971783765], [163.2478319543855, 62.29572242919373], [163.24784761160404, 62.29545326931326], [163.2461132964603, 62.295431389206186], [163.2461446408983, 62.29489306990413], [163.24556654680623, 62.29488577189302], [163.24559790028783, 62.29434745270574], [163.24617598406172, 62.29435475055103], [163.24619165516546, 62.29408559085533], [163.2473478133511, 62.294100179168645], [163.2473791339675, 62.293561859407546], [163.24795720322038, 62.29356914979282], [163.24794154823016, 62.29383830976257], [163.2485196229601, 62.293845597826895], [163.2485039728104, 62.29411475786671], [163.24792589292161, 62.29410746971958], [163.24791023729475, 62.294376629663844], [163.24906640770854, 62.29439120371982], [163.24905076208154, 62.29466036381688], [163.25078503556514, 62.29468220712008], [163.25075377431241, 62.29522052777226], [163.25133187642794, 62.29522780423087], [163.2513162504843, 62.295496964620526], [163.25189435807704, 62.29550423875784], [163.25187873697521, 62.29577339921737], [163.25419119115955, 62.29580247205716], [163.25412878613352, 62.29687911508906], [163.2535506514719, 62.29687185015498], [163.25351943673505, 62.29741017142941], [163.25409758171702, 62.29741743652857], [163.2540819790329, 62.2976865972292], [163.25466012949246, 62.297693860006696], [163.254613335018, 62.298501342279735], [163.25345700345287, 62.29848681382533]]]}, "properties": {"zone_id": "scene_03_russia_sample-Z0014", "scene": "scene_03_russia_sample", "pixel_count": 116, "approx_area_m2": 104400.0, "centroid_x": 409246.2931034483, "centroid_y": 6908390.172413793, "centroid_lon": 163.25015098560414, "centroid_lat": 62.29606745027876, "mean_risk": 2.0299694538116455, "max_risk": 2.459106683731079, "median_risk": 2.0176496505737305, "high_priority_pixel_pct": 100.0, "priority_category": "HIGH PRIORITY", "threshold_type": "95th percentile prioritisation threshold", "recommendation": "Spectral-stress evidence detected. Prioritise field inspection to determine the underlying cause. Field verification required.", "priority_rank": 17}}, {"type": "Feature", "geometry": {"type": "Polygon", "coordinates": [[[163.24017500940874, 62.29804988669973], [163.24019073657792, 62.297780728013194], [163.2396125889215, 62.29777340504816], [163.23964405262078, 62.297235087803195], [163.24080032761276, 62.29724973099634], [163.24081604866254, 62.296980572188325], [163.24197231461318, 62.29699520559875], [163.24195660388344, 62.29726436457302], [163.24253474249804, 62.29727167775518], [163.2425033304006, 62.297809995831585], [163.24192518146558, 62.29780268248326], [163.24190946977743, 62.29807184141922], [163.24017500940874, 62.29804988669973]]]}, "properties": {"zone_id": "scene_03_russia_sample-Z0015", "scene": "scene_03_russia_sample", "pixel_count": 15, "approx_area_m2": 13500.0, "centroid_x": 408782.0, "centroid_y": 6908568.0, "centroid_lon": 163.24111064878548, "centroid_lat": 62.29754995287863, "mean_risk": 2.1669092178344727, "max_risk": 2.5683438777923584, "median_risk": 2.1472160816192627, "high_priority_pixel_pct": 100.0, "priority_category": "HIGH PRIORITY", "threshold_type": "95th percentile prioritisation threshold", "recommendation": "Spectral-stress evidence detected. Prioritise field inspection to determine the underlying cause. Field verification required.", "priority_rank": 8}}, {"type": "Feature", "geometry": {"type": "Polygon", "coordinates": [[[163.23500319248643, 62.29744557682859], [163.2350189654567, 62.29717641886627], [163.23444083100335, 62.2971690744307], [163.23447238630143, 62.29663075863458], [163.23389426248863, 62.296623411961875], [163.23392582682277, 62.296085096281516], [163.23450394031624, 62.296092442787305], [163.23448816346925, 62.29636160071733], [163.23622252135291, 62.29638362606101], [163.23615947267533, 62.29746025865422], [163.23500319248643, 62.29744557682859]]]}, "properties": {"zone_id": "scene_03_russia_sample-Z0016", "scene": "scene_03_russia_sample", "pixel_count": 13, "approx_area_m2": 11700.0, "centroid_x": 408473.07692307694, "centroid_y": 6908492.307692308, "centroid_lon": 163.23519706071514, "centroid_lat": 62.29679536326471, "mean_risk": 1.914357304573059, "max_risk": 2.1401607990264893, "median_risk": 1.894080638885498, "high_priority_pixel_pct": 100.0, "priority_category": "HIGH PRIORITY", "threshold_type": "95th percentile prioritisation threshold", "recommendation": "Spectral-stress evidence detected. Prioritise field inspection to determine the underlying cause. Field verification required.", "priority_rank": 25}}, {"type": "Feature", "geometry": {"type": "Polygon", "coordinates": [[[163.2414727561336, 62.29564209544815], [163.24151989709262, 62.294834618506414], [163.24094180555352, 62.29482730126425], [163.24097324158015, 62.29428898340546], [163.24155132280117, 62.294296300481385], [163.24156703517625, 62.29402714144971], [163.24214511155787, 62.29403445603871], [163.2421294043417, 62.29430361515348], [163.2427074862016, 62.29431092742177], [163.24269178382502, 62.29458008660682], [163.24384795882048, 62.29459470409798], [163.24381657374624, 62.295133022761945], [163.24323847577057, 62.29512571505226], [163.24322277759552, 62.29539487428207], [163.24206657228322, 62.29538025148485], [163.2420508634701, 62.29564941053576], [163.2414727561336, 62.29564209544815]]]}, "properties": {"zone_id": "scene_03_russia_sample-Z0017", "scene": "scene_03_russia_sample", "pixel_count": 17, "approx_area_m2": 15300.0, "centroid_x": 408834.70588235295, "centroid_y": 6908264.117647059, "centroid_lon": 163.2422854806898, "centroid_lat": 62.29483638295099, "mean_risk": 1.9168411493301392, "max_risk": 2.1240339279174805, "median_risk": 1.8785666227340698, "high_priority_pixel_pct": 100.0, "priority_category": "HIGH PRIORITY", "threshold_type": "95th percentile prioritisation threshold", "recommendation": "Spectral-stress evidence detected. Prioritise field inspection to determine the underlying cause. Field verification required.", "priority_rank": 24}}, {"type": "Feature", "geometry": {"type": "Polygon", "coordinates": [[[163.22371031227428, 62.29272257102515], [163.2237737930678, 62.29164594492343], [163.2231957682258, 62.291638554086], [163.22322751700193, 62.291100241126124], [163.22496156155015, 62.29112240592431], [163.2249457027961, 62.29139156266242], [163.22552372344802, 62.29139894620546], [163.22550786952922, 62.291668103014665], [163.22608589566113, 62.29167548423808], [163.22603834744447, 62.292482954840295], [163.22546030583888, 62.292475573365344], [163.22544445063076, 62.29274473012326], [163.22371031227428, 62.29272257102515]]]}, "properties": {"zone_id": "scene_03_russia_sample-Z0018", "scene": "scene_03_russia_sample", "pixel_count": 22, "approx_area_m2": 19800.0, "centroid_x": 407911.36363636365, "centroid_y": 6907965.0, "centroid_lon": 163.2246512430785, "centroid_lat": 62.291926519073506, "mean_risk": 2.0918424129486084, "max_risk": 2.4477438926696777, "median_risk": 2.041398048400879, "high_priority_pixel_pct": 100.0, "priority_category": "HIGH PRIORITY", "threshold_type": "95th percentile prioritisation threshold", "recommendation": "Spectral-stress evidence detected. Prioritise field inspection to determine the underlying cause. Field verification required.", "priority_rank": 13}}, {"type": "Feature", "geometry": {"type": "Polygon", "coordinates": [[[163.23816155371068, 62.29290656917824], [163.23817729543848, 62.292637410581825], [163.23702119905727, 62.292622746180015], [163.23709995447558, 62.2912769538391], [163.23767797671627, 62.2912842868253], [163.23769372168164, 62.29101512823545], [163.2400057932136, 62.291044435812275], [163.239990068879, 62.291313594735044], [163.24056809271912, 62.2913209157037], [163.24053665340654, 62.291859233677236], [163.241114687882, 62.29186655240866], [163.24109897290433, 62.29213571145941], [163.24052093327083, 62.29212839264484], [163.24050521281552, 62.29239755159966], [163.23992716834354, 62.29239023029832], [163.23989571615752, 62.29292854800332], [163.23816155371068, 62.29290656917824]]]}, "properties": {"zone_id": "scene_03_russia_sample-Z0019", "scene": "scene_03_russia_sample", "pixel_count": 37, "approx_area_m2": 33300.0, "centroid_x": 408647.02702702704, "centroid_y": 6907945.945945946, "centroid_lon": 163.23883586699984, "centroid_lat": 62.29193596469617, "mean_risk": 2.3520667552948, "max_risk": 3.025498151779175, "median_risk": 2.305180072784424, "high_priority_pixel_pct": 100.0, "priority_category": "HIGH PRIORITY", "threshold_type": "95th percentile prioritisation threshold", "recommendation": "Spectral-stress evidence detected. Prioritise field inspection to determine the underlying cause. Field verification required.", "priority_rank": 1}}, {"type": "Feature", "geometry": {"type": "Polygon", "coordinates": [[[163.25212863649443, 62.29146683033531], [163.25214425251536, 62.29119766967181], [163.25098820272504, 62.291183121637786], [163.25101945444538, 62.29064480060311], [163.25275349866075, 62.290666618553175], [163.2527691085717, 62.29039745776886], [163.2545031401704, 62.29041925383995], [163.2544719509771, 62.290957575891014], [163.25389392981168, 62.29095031277244], [163.25387832958162, 62.29121947369632], [163.25272227788676, 62.291204940083524], [163.25270666702372, 62.291474100829596], [163.25212863649443, 62.29146683033531]]]}, "properties": {"zone_id": "scene_03_russia_sample-Z0020", "scene": "scene_03_russia_sample", "pixel_count": 15, "approx_area_m2": 13500.0, "centroid_x": 409368.0, "centroid_y": 6907808.0, "centroid_lon": 163.2527993327659, "centroid_lat": 62.290873702044635, "mean_risk": 1.9983229637145996, "max_risk": 2.1806061267852783, "median_risk": 2.0320305824279785, "high_priority_pixel_pct": 100.0, "priority_category": "HIGH PRIORITY", "threshold_type": "95th percentile prioritisation threshold", "recommendation": "Spectral-stress evidence detected. Prioritise field inspection to determine the underlying cause. Field verification required.", "priority_rank": 19}}, {"type": "Feature", "geometry": {"type": "Polygon", "coordinates": [[[163.23658495175596, 62.29019298467982], [163.23660070575545, 62.289923826205445], [163.23602270994243, 62.28991648882901], [163.2360384687788, 62.28964733042521], [163.23546047844326, 62.289639990728794], [163.23549200546876, 62.289101674049576], [163.23606998549042, 62.28910901357924], [163.23608574336572, 62.288839855137084], [163.2366637185509, 62.28884719218014], [163.23669522302723, 62.28830887509078], [163.23727318821935, 62.28831620956395], [163.23728893482067, 62.28804705091678], [163.23960077816307, 62.28807636444453], [163.23953787234387, 62.289153000288444], [163.2383819087794, 62.289138347665194], [163.23836617121145, 62.289407506427764], [163.2377881847521, 62.289400176427954], [163.2377724417072, 62.289669335094494], [163.23835043332355, 62.28967666517758], [163.2383346951157, 62.2899458239146], [163.2377566983422, 62.289938493748245], [163.23774095465717, 62.29020765238923], [163.23658495175596, 62.29019298467982]]]}, "properties": {"zone_id": "scene_03_russia_sample-Z0021", "scene": "scene_03_russia_sample", "pixel_count": 35, "approx_area_m2": 31500.0, "centroid_x": 408574.28571428574, "centroid_y": 6907625.142857143, "centroid_lon": 163.23760267880573, "centroid_lat": 62.289039961494055, "mean_risk": 2.136828660964966, "max_risk": 2.4546937942504883, "median_risk": 2.1348705291748047, "high_priority_pixel_pct": 100.0, "priority_category": "HIGH PRIORITY", "threshold_type": "95th percentile prioritisation threshold", "recommendation": "Spectral-stress evidence detected. Prioritise field inspection to determine the underlying cause. Field verification required.", "priority_rank": 11}}, {"type": "Feature", "geometry": {"type": "Polygon", "coordinates": [[[163.23141455507326, 62.28958854556074], [163.23146195342494, 62.288781072275796], [163.2320399260445, 62.28878842854478], [163.23207151302663, 62.28825011279039], [163.23380540187188, 62.28827216667693], [163.23378962401097, 62.28854132481104], [163.23436759275754, 62.28854867138363], [163.2343202727206, 62.289356145959566], [163.23374228850372, 62.28934879913661], [163.2337265093598, 62.28961795721955], [163.23141455507326, 62.28958854556074]]]}, "properties": {"zone_id": "scene_03_russia_sample-Z0022", "scene": "scene_03_russia_sample", "pixel_count": 21, "approx_area_m2": 18900.0, "centroid_x": 408330.0, "centroid_y": 6907624.285714285, "centroid_lon": 163.2328967373172, "centroid_lat": 62.28897248857581, "mean_risk": 2.2209644317626953, "max_risk": 2.6836390495300293, "median_risk": 2.2344112396240234, "high_priority_pixel_pct": 100.0, "priority_category": "HIGH PRIORITY", "threshold_type": "95th percentile prioritisation threshold", "recommendation": "Spectral-stress evidence detected. Prioritise field inspection to determine the underlying cause. Field verification required.", "priority_rank": 5}}, {"type": "Feature", "geometry": {"type": "Polygon", "coordinates": [[[163.2315251467308, 62.287704441050025], [163.2315409442544, 62.28743528321158], [163.23096299773798, 62.28742792495728], [163.23097880009658, 62.28715876718961], [163.23040085905745, 62.28715140661584], [163.2304166662508, 62.286882248918964], [163.23099460213393, 62.28688960940916], [163.23101040385006, 62.2866204516159], [163.23158833489853, 62.28662780961946], [163.23160413113771, 62.286358651729806], [163.22987035442333, 62.28633657076089], [163.22985454271685, 62.286605728399735], [163.22869868286926, 62.28659099557155], [163.2287461479583, 62.28578352311861], [163.22932406225445, 62.28579089048316], [163.22935569372842, 62.28525257528316], [163.2299335980353, 62.285259940077474], [163.22994940813487, 62.28499078237463], [163.23110520740207, 62.28500550458746], [163.23108940761298, 62.285274662457525], [163.23166731288364, 62.28528202004323], [163.23165151792873, 62.285551177984075], [163.2322294286758, 62.28555853325046], [163.23221363855532, 62.28582769126204], [163.2327915547788, 62.28583504420902], [163.23277576949295, 62.28610420229134], [163.23219784811388, 62.28609684926084], [163.23216626626808, 62.28663516522001], [163.2339000623023, 62.28665721760361], [163.23388428636562, 62.28692637581448], [163.23446222417445, 62.286933721886406], [163.23444645307316, 62.28720288016791], [163.2338685101083, 62.28719553401253], [163.23385273353028, 62.28746469219784], [163.23211889109194, 62.28744263906279], [163.23210309872454, 62.287711796984794], [163.2315251467308, 62.287704441050025]]]}, "properties": {"zone_id": "scene_03_russia_sample-Z0023", "scene": "scene_03_russia_sample", "pixel_count": 45, "approx_area_m2": 40500.0, "centroid_x": 408239.3333333333, "centroid_y": 6907334.666666667, "centroid_lon": 163.23130250089557, "centroid_lat": 62.28635181891745, "mean_risk": 2.055448293685913, "max_risk": 2.435408353805542, "median_risk": 2.0669121742248535, "high_priority_pixel_pct": 100.0, "priority_category": "HIGH PRIORITY", "threshold_type": "95th percentile prioritisation threshold", "recommendation": "Spectral-stress evidence detected. Prioritise field inspection to determine the underlying cause. Field verification required.", "priority_rank": 15}}, {"type": "Feature", "geometry": {"type": "Polygon", "coordinates": [[[163.24655200263018, 62.287894914332284], [163.24658332923045, 62.28735659431558], [163.24600537955516, 62.2873492986254], [163.2460210475339, 62.28708013868081], [163.24659899205295, 62.28708743428812], [163.2466146545571, 62.286818274247885], [163.24777053423801, 62.286832858087536], [163.24775488204614, 62.287102018293425], [163.24833282752004, 62.28710930669142], [163.24830153249437, 62.287647627230534], [163.24772357670787, 62.287640338666954], [163.24770792356145, 62.28790949883458], [163.24655200263018, 62.287894914332284]]]}, "properties": {"zone_id": "scene_03_russia_sample-Z0024", "scene": "scene_03_russia_sample", "pixel_count": 11, "approx_area_m2": 9900.0, "centroid_x": 409069.0909090909, "centroid_y": 6907423.636363637, "centroid_lon": 163.24724080229862, "centroid_lat": 62.2873526474049, "mean_risk": 2.0112056732177734, "max_risk": 2.2915358543395996, "median_risk": 1.9917231798171997, "high_priority_pixel_pct": 100.0, "priority_category": "HIGH PRIORITY", "threshold_type": "95th percentile prioritisation threshold", "recommendation": "Spectral-stress evidence detected. Prioritise field inspection to determine the underlying cause. Field verification required.", "priority_rank": 18}}, {"type": "Feature", "geometry": {"type": "Polygon", "coordinates": [[[163.22707575114603, 62.28468477749573], [163.22709158637787, 62.28441562018577], [163.22593581223333, 62.28440086466847], [163.22595165745304, 62.28413170751326], [163.22537377601864, 62.28412432623429], [163.22538962607106, 62.28385516915012], [163.22596750235067, 62.28386255034527], [163.22598334692628, 62.28359339316444], [163.22656121837335, 62.28360077187305], [163.22657705747238, 62.2833316145956], [163.22773279102304, 62.283346364637254], [163.22770113312149, 62.28388467951439], [163.22827901068868, 62.28389205109867], [163.22824736180988, 62.28443036609199], [163.227669473933, 62.28442299434027], [163.22765364385612, 62.28469215173398], [163.22707575114603, 62.28468477749573]]]}, "properties": {"zone_id": "scene_03_russia_sample-Z0025", "scene": "scene_03_russia_sample", "pixel_count": 15, "approx_area_m2": 13500.0, "centroid_x": 408008.0, "centroid_y": 6907078.0, "centroid_lon": 163.22698155576182, "centroid_lat": 62.283992219423226, "mean_risk": 2.0346920490264893, "max_risk": 2.393253803253174, "median_risk": 2.019357681274414, "high_priority_pixel_pct": 100.0, "priority_category": "HIGH PRIORITY", "threshold_type": "95th percentile prioritisation threshold", "recommendation": "Spectral-stress evidence detected. Prioritise field inspection to determine the underlying cause. Field verification required.", "priority_rank": 16}}]}