{"type": "FeatureCollection", "features": [{"type": "Feature", "geometry": {"type": "Polygon", "coordinates": [[[33.522683963464175, 17.865883441129117], [33.52268317096375, 17.86561228954168], [33.52240001038243, 17.865613048219497], [33.52239921832532, 17.86534189661223], [33.52268237847736, 17.865341137946675], [33.52268079354671, 17.864798834733985], [33.523530271343006, 17.864796556344597], [33.523529477610985, 17.864525404763743], [33.52409579521304, 17.86452388380679], [33.524096589803584, 17.86479503536304], [33.52437974901275, 17.864794274255683], [33.52438054404663, 17.86506542579206], [33.5240973844082, 17.865066186911726], [33.52409817902689, 17.865337338452854], [33.523815018945115, 17.865338099173762], [33.5238158131486, 17.865609250719626], [33.52353265262347, 17.865610011041756], [33.52353344641175, 17.865881162592352], [33.522683963464175, 17.865883441129117]]]}, "properties": {"zone_id": "scene_01_sudan_sample-Z0001", "scene": "scene_01_sudan_sample", "pixel_count": 22, "approx_area_m2": 19800.0, "centroid_x": 555443.1818181818, "centroid_y": 1975355.4545454546, "centroid_lon": 33.52332567176302, "centroid_lat": 17.865253136677808, "mean_risk": 2.4301798343658447, "max_risk": 3.31575345993042, "median_risk": 2.388455867767334, "high_priority_pixel_pct": 100.0, "priority_category": "HIGH PRIORITY", "threshold_type": "95th percentile prioritisation threshold", "recommendation": "Spectral-stress evidence detected. Prioritise field inspection to determine the underlying cause. Field verification required.", "priority_rank": 10}}, {"type": "Feature", "geometry": {"type": "Polygon", "coordinates": [[[33.49348464737137, 17.85375754255268], [33.49348240434962, 17.85294408306123], [33.49376554615467, 17.85294336685856], [33.493766294244274, 17.85321452001835], [33.494049436465, 17.85321380339331], [33.49404868794646, 17.852942650245126], [33.49433182972498, 17.852941933220908], [33.49433257867246, 17.853213086357496], [33.49461572086665, 17.853212368910896], [33.49461721965932, 17.853754675138187], [33.49348464737137, 17.85375754255268]]]}, "properties": {"zone_id": "scene_01_sudan_sample-Z0002", "scene": "scene_01_sudan_sample", "pixel_count": 10, "approx_area_m2": 9000.0, "centroid_x": 552342.0, "centroid_y": 1974036.0, "centroid_lon": 33.49402164618437, "centroid_lat": 17.853403682274347, "mean_risk": 2.0745646953582764, "max_risk": 2.6445119380950928, "median_risk": 1.9791252613067627, "high_priority_pixel_pct": 100.0, "priority_category": "HIGH PRIORITY", "threshold_type": "95th percentile prioritisation threshold", "recommendation": "Spectral-stress evidence detected. Prioritise field inspection to determine the underlying cause. Field verification required.", "priority_rank": 17}}, {"type": "Feature", "geometry": {"type": "Polygon", "coordinates": [[[33.49319328515425, 17.850775573117506], [33.493191043856356, 17.849962113341995], [33.493474180956845, 17.849961397677504], [33.49347268596678, 17.849419091145887], [33.49375582219633, 17.84941837509387], [33.493755074292345, 17.849147221828318], [33.49403821007981, 17.849146505377206], [33.49403746176025, 17.848875352115694], [33.49375432640161, 17.84887606855521], [33.49375357852413, 17.848604915274553], [33.492904173655134, 17.848607062094306], [33.49290492024616, 17.84887821540971], [33.49262178483453, 17.848878930206528], [33.492620292523334, 17.84833662354503], [33.49290342707734, 17.84833590877135], [33.49290268051278, 17.84806475544084], [33.49261954638757, 17.84806547020295], [33.49261880026504, 17.847794316853314], [33.493185067644625, 17.84779288694158], [33.49318656161811, 17.84833519358701], [33.49346969614564, 17.84833447799201], [33.493468948723475, 17.848063324684652], [33.493752082808946, 17.848062608690576], [33.4937505871468, 17.847520302076376], [33.493467453918896, 17.847521018047274], [33.49346670653648, 17.847249864717263], [33.49261730805966, 17.847252010131392], [33.4926165619768, 17.846980856759096], [33.49289969438688, 17.846980142043257], [33.492898201403335, 17.84643783529915], [33.49346446446873, 17.846436404681896], [33.49346371713931, 17.84616525132167], [33.4943131103518, 17.846163102350953], [33.49431385896746, 17.846434255676403], [33.49459699044049, 17.84643353852001], [33.49459773949818, 17.846704691826293], [33.49516400326193, 17.846703256258422], [33.4951655031322, 17.847245562801863], [33.49431610489407, 17.847247715607423], [33.49431685356281, 17.847518868902647], [33.494033720361436, 17.847519585694833], [33.494035216881166, 17.848061892285845], [33.49488461901821, 17.848059740607717], [33.49488536858437, 17.848330893857067], [33.49545163746691, 17.848329457328457], [33.49545238790397, 17.848600610547003], [33.495735522754096, 17.848599891655073], [33.49573627363328, 17.84887104485443], [33.495453138354335, 17.84887176375799], [33.49545538978526, 17.849685223345645], [33.49460598000918, 17.849687377696878], [33.49460672922623, 17.849958530912517], [33.49488986626039, 17.849957813194518], [33.494890615919566, 17.850228966390986], [33.49460747845655, 17.8502296841206], [33.49460822770015, 17.850500837321135], [33.494325089795, 17.850501554651647], [33.49432583862301, 17.850772707856226], [33.49319328515425, 17.850775573117506]], [[33.49346670653648, 17.847249864717263], [33.4937498393356, 17.847249148757953], [33.49374834375299, 17.84670684209844], [33.493465211811404, 17.846707558034577], [33.49346670653648, 17.847249864717263]]]}, "properties": {"zone_id": "scene_01_sudan_sample-Z0003", "scene": "scene_01_sudan_sample", "pixel_count": 92, "approx_area_m2": 82800.0, "centroid_x": 552351.8478260869, "centroid_y": 1973493.9130434783, "centroid_lon": 33.49410106549659, "centroid_lat": 17.848503826438836, "mean_risk": 2.1475725173950195, "max_risk": 2.7155063152313232, "median_risk": 2.120652437210083, "high_priority_pixel_pct": 100.0, "priority_category": "HIGH PRIORITY", "threshold_type": "95th percentile prioritisation threshold", "recommendation": "Spectral-stress evidence detected. Prioritise field inspection to determine the underlying cause. Field verification required.", "priority_rank": 15}}, {"type": "Feature", "geometry": {"type": "Polygon", "coordinates": [[[33.54016789173747, 17.841974298930197], [33.540167073898076, 17.841703147450946], [33.539883951948276, 17.841703930499715], [33.53988068245007, 17.840619324456434], [33.540163802685505, 17.840618541458372], [33.54015971399606, 17.839262783797633], [33.54072595013786, 17.839261216696986], [33.540725131586406, 17.838990065167536], [33.54157448440462, 17.838987711476477], [33.5415736645821, 17.838716559977588], [33.54185678173058, 17.838715774605767], [33.541857601981626, 17.838986926091945], [33.542423837091995, 17.838985354091623], [33.54242301598391, 17.8387142026309], [33.54270613308872, 17.838713416027844], [33.54270695462534, 17.838984567475833], [33.54355630713793, 17.83898220516593], [33.543560421467774, 17.840337962101255], [33.543277301835424, 17.840338750012094], [33.54327894681235, 17.840881052758835], [33.54299582630826, 17.840881840284712], [33.542996648390016, 17.8411529916595], [33.542713527442764, 17.84115377878766], [33.5427143491105, 17.841424930167634], [33.54243122772009, 17.841425716898062], [33.542432048973794, 17.84169686828321], [33.54186580529208, 17.841698440538067], [33.541866625703136, 17.841969591941112], [33.54016789173747, 17.841974298930197]]]}, "properties": {"zone_id": "scene_01_sudan_sample-Z0004", "scene": "scene_01_sudan_sample", "pixel_count": 119, "approx_area_m2": 107100.0, "centroid_x": 557394.2016806722, "centroid_y": 1972606.8907563025, "centroid_lon": 33.541665474661436, "centroid_lat": 17.84036031736377, "mean_risk": 3.873584032058716, "max_risk": 5.720835208892822, "median_risk": 4.097036838531494, "high_priority_pixel_pct": 100.0, "priority_category": "HIGH PRIORITY", "threshold_type": "95th percentile prioritisation threshold", "recommendation": "Spectral-stress evidence detected. Prioritise field inspection to determine the underlying cause. Field verification required.", "priority_rank": 2}}, {"type": "Feature", "geometry": {"type": "Polygon", "coordinates": [[[33.517799611845284, 17.841492591115724], [33.51779882789416, 17.84122143864034], [33.517515705680005, 17.84122218923599], [33.51751178827583, 17.839866426685028], [33.5177949083471, 17.839865676150144], [33.51779412447939, 17.83959452362944], [33.51836036372309, 17.83959302135265], [33.51836350270589, 17.840677631292838], [33.518646624021144, 17.840676879490093], [33.51864740923022, 17.84094803194408], [33.51836428748638, 17.840948783759], [33.51836507228078, 17.84121993621761], [33.51808195009443, 17.84122068763422], [33.51808273447414, 17.841491840097436], [33.517799611845284, 17.841492591115724]]]}, "properties": {"zone_id": "scene_01_sudan_sample-Z0005", "scene": "scene_01_sudan_sample", "pixel_count": 19, "approx_area_m2": 17100.0, "centroid_x": 554884.7368421053, "centroid_y": 1972616.8421052631, "centroid_lon": 33.51798304943289, "centroid_lat": 17.84051452103465, "mean_risk": 2.9208743572235107, "max_risk": 4.108714580535889, "median_risk": 3.017399549484253, "high_priority_pixel_pct": 100.0, "priority_category": "HIGH PRIORITY", "threshold_type": "95th percentile prioritisation threshold", "recommendation": "Spectral-stress evidence detected. Prioritise field inspection to determine the underlying cause. Field verification required.", "priority_rank": 4}}, {"type": "Feature", "geometry": {"type": "Polygon", "coordinates": [[[33.54779975081501, 17.83788573329404], [33.54779892162377, 17.837614582046225], [33.548082036736474, 17.837613787696768], [33.5480828663562, 17.837884938931722], [33.54779975081501, 17.83788573329404]]]}, "properties": {"zone_id": "scene_01_sudan_sample-Z0006", "scene": "scene_01_sudan_sample", "pixel_count": 14, "approx_area_m2": 12600.0, "centroid_x": 557957.1428571428, "centroid_y": 1972401.4285714286, "centroid_lon": 33.54697245998542, "centroid_lat": 17.838488463670913, "mean_risk": 2.45281720161438, "max_risk": 3.225978136062622, "median_risk": 2.3358118534088135, "high_priority_pixel_pct": 100.0, "priority_category": "HIGH PRIORITY", "threshold_type": "95th percentile prioritisation threshold", "recommendation": "Spectral-stress evidence detected. Prioritise field inspection to determine the underlying cause. Field verification required.", "priority_rank": 8}}, {"type": "Feature", "geometry": {"type": "Polygon", "coordinates": [[[33.53874004577397, 17.837910936200505], [33.53873841482961, 17.837368632881127], [33.53930464511714, 17.837367070061912], [33.53930382880969, 17.837095918416193], [33.53958694350327, 17.83709513640368], [33.53958612678183, 17.83682398476307], [33.539869241032434, 17.836823202352843], [33.53987005818236, 17.837094353980785], [33.54015317284695, 17.837093571147516], [33.54015235526857, 17.83682241953225], [33.541567926231544, 17.836818499273782], [33.54156874595229, 17.837089650825565], [33.541285631360275, 17.8370904357107], [33.54128645066708, 17.837361587267637], [33.539870875346764, 17.83736550560117], [33.539871692525665, 17.837636657214002], [33.53958857698961, 17.83763743966223], [33.539589393754504, 17.837908591280172], [33.53874004577397, 17.837910936200505]]]}, "properties": {"zone_id": "scene_01_sudan_sample-Z0007", "scene": "scene_01_sudan_sample", "pixel_count": 20, "approx_area_m2": 18000.0, "centroid_x": 557223.0, "centroid_y": 1972266.0, "centroid_lon": 33.54004049917638, "centroid_lat": 17.837283690459806, "mean_risk": 2.4270548820495605, "max_risk": 3.1432435512542725, "median_risk": 2.4724249839782715, "high_priority_pixel_pct": 100.0, "priority_category": "HIGH PRIORITY", "threshold_type": "95th percentile prioritisation threshold", "recommendation": "Spectral-stress evidence detected. Prioritise field inspection to determine the underlying cause. Field verification required.", "priority_rank": 11}}, {"type": "Feature", "geometry": {"type": "Polygon", "coordinates": [[[33.533355187818124, 17.83602763816626], [33.53335438058038, 17.835756486218376], [33.532788154830065, 17.835758031651352], [33.532787348463515, 17.83548687967089], [33.53250423599533, 17.835487651759355], [33.53250343007152, 17.835216499758832], [33.531937205949156, 17.83521804267977], [33.531938011016116, 17.83548919470528], [33.53108867344021, 17.835491506046626], [33.53108947723614, 17.835762658102016], [33.530523251257364, 17.83576419696948], [33.53052244831832, 17.83549304488917], [33.53023933573601, 17.83549381369494], [33.53023692828957, 17.834680357371344], [33.529387594313086, 17.834682661214675], [33.529388395495744, 17.834953813367413], [33.528822171916865, 17.834955347236214], [33.52881977098195, 17.83414189068084], [33.52797043936285, 17.83414418829497], [33.52796804241116, 17.833330731559993], [33.52768493312826, 17.833331496573592], [33.52768333608806, 17.83278919202106], [33.528532661324014, 17.832786895823794], [33.52853186154009, 17.832515743573392], [33.5293811853633, 17.83251344372093], [33.52938438972452, 17.833598052528227], [33.52966749935065, 17.833597285040494], [33.529669102473285, 17.83413958937396], [33.53023532339644, 17.834138053117844], [33.53023452097123, 17.833866900979768], [33.53051763098307, 17.833866132248705], [33.53051602531857, 17.83332382797479], [33.530799134459414, 17.83332305885834], [33.530798331220154, 17.833051906722506], [33.53136454860234, 17.833050367283693], [33.531363744520604, 17.832779215165242], [33.53192996098901, 17.83277767411027], [33.53193076592748, 17.83304882620376], [33.53278009180808, 17.833046511506783], [33.532778479375295, 17.832504207387228], [33.53249537161943, 17.83250497933816], [33.53249456585283, 17.832233827254555], [33.53107902900101, 17.832237680792822], [33.531077421794045, 17.831695376478116], [33.53136052833628, 17.831694606615915], [33.53135972432585, 17.831423454459703], [33.53192593651087, 17.831421913529528], [33.53192513165808, 17.831150761390724], [33.53277444854356, 17.83114844695617], [33.532773642420125, 17.8308772948473], [33.534472273234954, 17.830872654977117], [33.534475508094204, 17.83195726306665], [33.535041721677686, 17.831955713061042], [33.535044150542824, 17.83276916897356], [33.535327258598066, 17.8327683933177], [33.53532644853364, 17.832497241366973], [33.53560955614616, 17.8324964653134], [33.53560793520373, 17.831954161414437], [33.535891041945185, 17.83195338497575], [33.535890231067214, 17.831682233027514], [33.536456443650316, 17.831680678944572], [33.53645563193007, 17.831409527013946], [33.53588942020361, 17.831411081071714], [33.53588779851957, 17.830868777137468], [33.53617090353336, 17.83086800033887], [33.536170092284614, 17.830596848373002], [33.536736301412446, 17.83059529357032], [33.536737113517795, 17.830866445511003], [33.5370202184884, 17.830865667481728], [33.53701940595475, 17.830594515553653], [33.538434928449945, 17.83059061931707], [33.538435743125085, 17.83086177118204], [33.5387188480091, 17.830860990691438], [33.53871966312699, 17.831132142536212], [33.53900276842485, 17.83113136162273], [33.53900195287865, 17.830860209790607], [33.53956816257435, 17.830858646758283], [33.53956979539446, 17.831400950364344], [33.53985290107722, 17.831400168207512], [33.53985371793732, 17.831671319986544], [33.5401368240339, 17.8316705374068], [33.54013764133683, 17.8319416891656], [33.539854534811916, 17.83194247175802], [33.539855351701, 17.832213623521945], [33.53928913775104, 17.832215187501365], [33.539289953797926, 17.832486339283065], [33.539006846372885, 17.832487120670056], [33.53900766200589, 17.83275827245686], [33.53844144625572, 17.83275983402533], [33.53844226104648, 17.83303098582988], [33.537592936027764, 17.83303332514346], [33.537593749547874, 17.83330447697834], [33.537310640751066, 17.833305255941596], [33.53730982765932, 17.833034104094104], [33.53702671927646, 17.833034882634475], [33.537025906627505, 17.832763730766814], [33.53674279865859, 17.8327645088843], [33.536745235363604, 17.83357796450242], [33.536462126095174, 17.83357874224743], [33.536462937930615, 17.83384989411762], [33.5341980598384, 17.833856101407772], [33.53419886826111, 17.834127253370948], [33.53363264773773, 17.83412880111558], [33.53363184017181, 17.833857649127346], [33.53306562044793, 17.833859195205722], [33.53306481375309, 17.833588043184893], [33.53193237584723, 17.83359113036808], [33.53193318082852, 17.833862282438915], [33.5322162907548, 17.833861511246067], [33.532217901617024, 17.83440381534009], [33.53250101238581, 17.83440304371194], [33.53250181826675, 17.834674195735126], [33.53278492944966, 17.834673423684166], [33.53278573577332, 17.834944575687302], [33.53306884737033, 17.834943803213516], [33.5330696541367, 17.83521495519657], [33.533918990127155, 17.835212635275706], [33.533919798193125, 17.835483787213647], [33.53420291058971, 17.835483013073492], [33.53420452762153, 17.836025316901633], [33.533355187818124, 17.83602763816626]], [[33.52881977098195, 17.83414189068084], [33.529102881493266, 17.83414112398885], [33.52910208078162, 17.83386997180104], [33.528818970698694, 17.83387073848061], [33.52881977098195, 17.83414189068084]], [[33.536459690675265, 17.83276528659152], [33.53674279865859, 17.8327645088843], [33.53674036208324, 17.831951053198207], [33.536174148672266, 17.831952608126816], [33.53617577132806, 17.83249491197547], [33.53645887889743, 17.832494134691117], [33.536459690675265, 17.83276528659152]]]}, "properties": {"zone_id": "scene_01_sudan_sample-Z0008", "scene": "scene_01_sudan_sample", "pixel_count": 353, "approx_area_m2": 317700.0, "centroid_x": 556571.6430594901, "centroid_y": 1971781.9546742209, "centroid_lon": 33.53388049552247, "centroid_lat": 17.832925597212082, "mean_risk": 3.2293925285339355, "max_risk": 5.669590473175049, "median_risk": 3.015603542327881, "high_priority_pixel_pct": 100.0, "priority_category": "HIGH PRIORITY", "threshold_type": "95th percentile prioritisation threshold", "recommendation": "Spectral-stress evidence detected. Prioritise field inspection to determine the underlying cause. Field verification required.", "priority_rank": 3}}, {"type": "Feature", "geometry": {"type": "Polygon", "coordinates": [[[33.54241398475587, 17.835731536064266], [33.542413163822495, 17.83546038451287], [33.54213005184482, 17.83546117055276], [33.542128410878604, 17.83491886740186], [33.54156218859331, 17.83492043819975], [33.54156054939893, 17.83437813496774], [33.54127743909128, 17.834378919725783], [33.54127498169391, 17.833565464782986], [33.5409918726569, 17.833566249092623], [33.54099105398188, 17.83329509741721], [33.540707945358726, 17.833295881303854], [33.54070630890895, 17.832753577904974], [33.54098941667538, 17.83275279404372], [33.54098859804391, 17.83248164234565], [33.541271705367464, 17.832480858086832], [33.541270886322174, 17.83220970639391], [33.54183710006901, 17.832208136670918], [33.54183628018157, 17.831936984995863], [33.542402493013554, 17.8319354136573], [33.54240331375767, 17.8322065653069], [33.542686420580154, 17.832205779009502], [33.54268724176716, 17.832476930638816], [33.542404134516325, 17.832477716948944], [33.54240495528955, 17.832748868583433], [33.5418387398875, 17.832750439998357], [33.54183955981856, 17.83302159165075], [33.54212266795522, 17.833020806135696], [33.54212430871772, 17.833563109392376], [33.54240741769656, 17.83356232344159], [33.54241152199943, 17.834918081387436], [33.5426946331057, 17.834917294962683], [33.5426962757856, 17.835459598062652], [33.54297938773415, 17.8354588112021], [33.54298020952439, 17.835729962728017], [33.54241398475587, 17.835731536064266]]]}, "properties": {"zone_id": "scene_01_sudan_sample-Z0009", "scene": "scene_01_sudan_sample", "pixel_count": 49, "approx_area_m2": 44100.0, "centroid_x": 557414.693877551, "centroid_y": 1971861.4285714286, "centroid_lon": 33.54183848656367, "centroid_lat": 17.833622006867795, "mean_risk": 2.348788022994995, "max_risk": 3.1523423194885254, "median_risk": 2.34968900680542, "high_priority_pixel_pct": 100.0, "priority_category": "HIGH PRIORITY", "threshold_type": "95th percentile prioritisation threshold", "recommendation": "Spectral-stress evidence detected. Prioritise field inspection to determine the underlying cause. Field verification required.", "priority_rank": 12}}, {"type": "Feature", "geometry": {"type": "Polygon", "coordinates": [[[33.49569874597739, 17.835313375634733], [33.495697995763614, 17.835042222057794], [33.49541488234455, 17.835042940368037], [33.49541263306829, 17.834229479557013], [33.4956957452021, 17.834228761281672], [33.49569499504154, 17.833957607674535], [33.496261218412414, 17.83395616991618], [33.49626046740836, 17.833685016324786], [33.49654357864542, 17.833684296841803], [33.49654282722631, 17.833413143254507], [33.49682593802165, 17.833412423372877], [33.496824434366644, 17.832870116198954], [33.497390654203805, 17.832868675251493], [33.49739140688139, 17.833139828818886], [33.49710829654111, 17.83314054950943], [33.49711130567138, 17.834225163750222], [33.49824375380666, 17.834222278339393], [33.49824450783624, 17.83449343183398], [33.49767828293849, 17.83449487538341], [33.4976790361246, 17.83476602889383], [33.49711281031657, 17.834767470825327], [33.49711356265919, 17.835038624351554], [33.495981109169364, 17.835041503337216], [33.495981859811586, 17.835312656902516], [33.49569874597739, 17.835313375634733]]]}, "properties": {"zone_id": "scene_01_sudan_sample-Z0010", "scene": "scene_01_sudan_sample", "pixel_count": 41, "approx_area_m2": 36900.0, "centroid_x": 552636.5853658536, "centroid_y": 1971919.756097561, "centroid_lon": 33.49674890330126, "centroid_lat": 17.83426907380579, "mean_risk": 2.3082046508789062, "max_risk": 2.9157886505126953, "median_risk": 2.301807165145874, "high_priority_pixel_pct": 100.0, "priority_category": "HIGH PRIORITY", "threshold_type": "95th percentile prioritisation threshold", "recommendation": "Spectral-stress evidence detected. Prioritise field inspection to determine the underlying cause. Field verification required.", "priority_rank": 13}}, {"type": "Feature", "geometry": {"type": "Polygon", "coordinates": [[[33.497363566701495, 17.823107141798634], [33.4973613101905, 17.822293680236115], [33.49792749657297, 17.82229223855871], [33.497926743573196, 17.82202108471281], [33.49820983631633, 17.82202036327076], [33.498212096639975, 17.822833824750752], [33.497929002612615, 17.822834546227874], [33.49792975565248, 17.823105700051137], [33.497363566701495, 17.823107141798634]]]}, "properties": {"zone_id": "scene_01_sudan_sample-Z0011", "scene": "scene_01_sudan_sample", "pixel_count": 903, "approx_area_m2": 812700.0, "centroid_x": 552867.973421927, "centroid_y": 1971241.661129568, "centroid_lon": 33.498915465052036, "centroid_lat": 17.828134579537675, "mean_risk": 2.490129232406616, "max_risk": 4.196859836578369, "median_risk": 2.405195713043213, "high_priority_pixel_pct": 100.0, "priority_category": "HIGH PRIORITY", "threshold_type": "95th percentile prioritisation threshold", "recommendation": "Spectral-stress evidence detected. Prioritise field inspection to determine the underlying cause. Field verification required.", "priority_rank": 7}}, {"type": "Feature", "geometry": {"type": "Polygon", "coordinates": [[[33.525139333045885, 17.83415182033886], [33.525136154273945, 17.833067210849368], [33.52570237222328, 17.833065687821716], [33.525703167751864, 17.833336840180745], [33.526269386501504, 17.833335315487272], [33.52627018290096, 17.833606467814064], [33.52655329268297, 17.83360570483954], [33.526554089524936, 17.833876857146418], [33.52627097931454, 17.833877620133297], [33.526271775742245, 17.83414877244498], [33.525139333045885, 17.83415182033886]]]}, "properties": {"zone_id": "scene_01_sudan_sample-Z0012", "scene": "scene_01_sudan_sample", "pixel_count": 15, "approx_area_m2": 13500.0, "centroid_x": 555706.0, "centroid_y": 1971862.0, "centroid_lon": 33.52571358592046, "centroid_lat": 17.833671236014535, "mean_risk": 2.173600196838379, "max_risk": 2.481978178024292, "median_risk": 2.2181901931762695, "high_priority_pixel_pct": 100.0, "priority_category": "HIGH PRIORITY", "threshold_type": "95th percentile prioritisation threshold", "recommendation": "Spectral-stress evidence detected. Prioritise field inspection to determine the underlying cause. Field verification required.", "priority_rank": 14}}, {"type": "Feature", "geometry": {"type": "Polygon", "coordinates": [[[33.54750254829123, 17.83327695478686], [33.547500891280116, 17.83273465200105], [33.54835021348351, 17.83273226964726], [33.54834938371494, 17.832461118281607], [33.548632490658306, 17.832460323356017], [33.548631660476126, 17.83218917199569], [33.54891476697641, 17.83218837667273], [33.54891725885218, 17.833001830692403], [33.548067935452, 17.833004215546413], [33.548068764821636, 17.833275366909824], [33.54750254829123, 17.83327695478686]]]}, "properties": {"zone_id": "scene_01_sudan_sample-Z0013", "scene": "scene_01_sudan_sample", "pixel_count": 10, "approx_area_m2": 9000.0, "centroid_x": 558096.0, "centroid_y": 1971774.0, "centroid_lon": 33.54826553016401, "centroid_lat": 17.832813853458173, "mean_risk": 2.446751832962036, "max_risk": 3.4917426109313965, "median_risk": 2.2801053524017334, "high_priority_pixel_pct": 100.0, "priority_category": "HIGH PRIORITY", "threshold_type": "95th percentile prioritisation threshold", "recommendation": "Spectral-stress evidence detected. Prioritise field inspection to determine the underlying cause. Field verification required.", "priority_rank": 9}}, {"type": "Feature", "geometry": {"type": "Polygon", "coordinates": [[[33.54239838951141, 17.830579655295978], [33.542396748212454, 17.83003735189857], [33.542679851608476, 17.830036565703068], [33.542678209511216, 17.829494262300923], [33.54324441454648, 17.829492688730287], [33.54324277079445, 17.828950385348914], [33.54380897405838, 17.82894881018856], [33.54380815134775, 17.828677658512063], [33.544091252529576, 17.828676870329396], [33.54409207566845, 17.828948021993128], [33.544658278844786, 17.828946444371724], [33.54465910285476, 17.829217596002355], [33.54494220484926, 17.829216806563604], [33.54494302930211, 17.829487958173882], [33.54522613171024, 17.82948716831216], [33.54522778151637, 17.830029471484465], [33.5449446782517, 17.830030261371782], [33.54494550274844, 17.8303014129594], [33.54409619158187, 17.830303780198484], [33.54409454517269, 17.829761476938998], [33.54381144227784, 17.829762265172743], [33.54381226504685, 17.83003341681903], [33.54352916170914, 17.830034204655345], [33.54352998406446, 17.830305356306837], [33.543246880283874, 17.8303061437457], [33.5432477022255, 17.8305772954024], [33.54239838951141, 17.830579655295978]]]}, "properties": {"zone_id": "scene_01_sudan_sample-Z0014", "scene": "scene_01_sudan_sample", "pixel_count": 39, "approx_area_m2": 35100.0, "centroid_x": 557626.9230769231, "centroid_y": 1971429.2307692308, "centroid_lon": 33.543829431671334, "centroid_lat": 17.829710070109176, "mean_risk": 2.6736254692077637, "max_risk": 3.9053947925567627, "median_risk": 2.6838552951812744, "high_priority_pixel_pct": 100.0, "priority_category": "HIGH PRIORITY", "threshold_type": "95th percentile prioritisation threshold", "recommendation": "Spectral-stress evidence detected. Prioritise field inspection to determine the underlying cause. Field verification required.", "priority_rank": 5}}, {"type": "Feature", "geometry": {"type": "Polygon", "coordinates": [[[33.54607626502733, 17.82975594781737], [33.54607543884679, 17.829484796265863], [33.545792336482585, 17.829485587358146], [33.545789859313636, 17.828672132619864], [33.54607296039309, 17.828671341566025], [33.5460713081639, 17.828129038395023], [33.54635440837223, 17.828128246956663], [33.546353581851406, 17.827857095372654], [33.546919781367635, 17.82785551129113], [33.54691812665713, 17.827313208151793], [33.54720122553682, 17.827312415521487], [33.54719957002863, 17.82677011237762], [33.54748266803725, 17.82676931936288], [33.547481011731456, 17.826227016214485], [33.54776410886902, 17.82622622281534], [33.547763280309994, 17.825955071242667], [33.54861257034996, 17.82595268862319], [33.54861174052117, 17.825681537081568], [33.549177932951224, 17.825679946643852], [33.549188733007334, 17.829204915760762], [33.54833942764021, 17.829207301304564], [33.548338598062976, 17.828936149840708], [33.5477723952678, 17.828937738126616], [33.547773223988536, 17.829208889616204], [33.54749012214064, 17.829209683156755], [33.547490950447816, 17.82948083465164], [33.547207848156965, 17.82948162779486], [33.54720867605057, 17.82975277929503], [33.54607626502733, 17.82975594781737]]]}, "properties": {"zone_id": "scene_01_sudan_sample-Z0015", "scene": "scene_01_sudan_sample", "pixel_count": 113, "approx_area_m2": 101700.0, "centroid_x": 558046.1946902655, "centroid_y": 1971232.831858407, "centroid_lon": 33.54778057074883, "centroid_lat": 17.827923887829897, "mean_risk": 4.106383800506592, "max_risk": 5.704737663269043, "median_risk": 4.23085880279541, "high_priority_pixel_pct": 100.0, "priority_category": "HIGH PRIORITY", "threshold_type": "95th percentile prioritisation threshold", "recommendation": "Spectral-stress evidence detected. Prioritise field inspection to determine the underlying cause. Field verification required.", "priority_rank": 1}}, {"type": "Feature", "geometry": {"type": "Polygon", "coordinates": [[[33.493407705185106, 17.82582872778553], [33.493406958862316, 17.82555757385156], [33.492840761779554, 17.82555900268603], [33.49283927088635, 17.82501669474914], [33.492556173181434, 17.82501740852809], [33.492553938225235, 17.824203946531494], [33.492837034645724, 17.824203232787237], [33.49283628925864, 17.823932078784846], [33.493119385237776, 17.823931364642103], [33.49311863943581, 17.823660210643734], [33.49368483049814, 17.82365878115121], [33.493685577156356, 17.823929935126408], [33.49396867309577, 17.82392921975347], [33.493969420195356, 17.824200373709534], [33.49425251654964, 17.824199657914928], [33.49425326409061, 17.824470811851857], [33.49453636085976, 17.824470095635572], [33.49453710884214, 17.824741249553345], [33.49425401164485, 17.824741965781232], [33.494256254387146, 17.825555427524094], [33.49369005738385, 17.825556858819176], [33.4936908041348, 17.82582801274156], [33.493407705185106, 17.82582872778553]]]}, "properties": {"zone_id": "scene_01_sudan_sample-Z0016", "scene": "scene_01_sudan_sample", "pixel_count": 36, "approx_area_m2": 32400.0, "centroid_x": 552292.5, "centroid_y": 1970862.5, "centroid_lon": 33.49347543208535, "centroid_lat": 17.824721337130264, "mean_risk": 2.599191427230835, "max_risk": 3.3187055587768555, "median_risk": 2.5774450302124023, "high_priority_pixel_pct": 100.0, "priority_category": "HIGH PRIORITY", "threshold_type": "95th percentile prioritisation threshold", "recommendation": "Spectral-stress evidence detected. Prioritise field inspection to determine the underlying cause. Field verification required.", "priority_rank": 6}}, {"type": "Feature", "geometry": {"type": "Polygon", "coordinates": [[[33.52057648192877, 17.822775532352274], [33.52057569465579, 17.822504379477756], [33.5200095096025, 17.82250588678266], [33.520007936810714, 17.82196358096213], [33.5202910284882, 17.821962827539103], [33.52029024168519, 17.821691674629722], [33.52057333292066, 17.82169092080891], [33.520572545703565, 17.8214197679042], [33.520855636497025, 17.821419013685603], [33.52085406124866, 17.82087670787799], [33.52113715117208, 17.820875953273852], [33.521137939217304, 17.821147106169207], [33.521421029554766, 17.821146351142854], [33.521425760688146, 17.82277326828306], [33.52057648192877, 17.822775532352274]]]}, "properties": {"zone_id": "scene_01_sudan_sample-Z0017", "scene": "scene_01_sudan_sample", "pixel_count": 27, "approx_area_m2": 24300.0, "centroid_x": 555175.5555555555, "centroid_y": 1970563.3333333333, "centroid_lon": 33.52067368273068, "centroid_lat": 17.821946744321608, "mean_risk": 2.1053736209869385, "max_risk": 2.4588372707366943, "median_risk": 2.1399612426757812, "high_priority_pixel_pct": 100.0, "priority_category": "HIGH PRIORITY", "threshold_type": "95th percentile prioritisation threshold", "recommendation": "Spectral-stress evidence detected. Prioritise field inspection to determine the underlying cause. Field verification required.", "priority_rank": 16}}]}